{
  "type": "FeatureCollection",
  "features": [
    {
      "type": "Feature",
      "properties": {
        "norad_id": 34003,
        "name": "COSMOS 2251 DEB",
        "group": "cosmos-2251-debris",
        "lat": -23.272761513843815,
        "lon": 110.43779826860558,
        "alt_km": 1151.2588731464994,
        "timestamp": "2025-12-13T18:50:04.823644+00:00",
        "meta_object_name": "COSMOS 2251 DEB",
        "meta_object_id": "1993-036GN",
        "meta_epoch": "2025-12-13T05:43:16.611744",
        "meta_mean_motion": 13.84157873,
        "meta_eccentricity": 0.02742283,
        "meta_inclination": 74.0779,
        "meta_ra_of_asc_node": 284.3049,
        "meta_arg_of_pericenter": 36.2049,
        "meta_mean_anomaly": 325.7294,
        "meta_ephemeris_type": 0,
        "meta_classification_type": "U",
        "meta_norad_cat_id": 34003,
        "meta_element_set_no": 999,
        "meta_rev_at_epoch": 84432,
        "meta_bstar": 0.003327545,
        "meta_mean_motion_dot": 4.942e-05,
        "meta_mean_motion_ddot": 0,
        "tle_line1": "1 34003U 93036GN  25347.23838671  .00004942  00000+0  33275-2 0  9990",
        "tle_line2": "2 34003  74.0779 284.3049 0274228  36.2049 325.7294 13.84157873844325"
      },
      "geometry": {
        "type": "Point",
        "coordinates": [
          110.43779826860558,
          -23.272761513843815
        ]
      }
    },
    {
      "type": "Feature",
      "properties": {
        "norad_id": 34004,
        "name": "COSMOS 2251 DEB",
        "group": "cosmos-2251-debris",
        "lat": 73.61035350268622,
        "lon": 27.878605870972333,
        "alt_km": 734.35234530457,
        "timestamp": "2025-12-13T18:50:04.823654+00:00",
        "meta_object_name": "COSMOS 2251 DEB",
        "meta_object_id": "1993-036GP",
        "meta_epoch": "2025-12-13T06:50:23.136864",
        "meta_mean_motion": 14.49021639,
        "meta_eccentricity": 0.00333866,
        "meta_inclination": 74.0354,
        "meta_ra_of_asc_node": 312.0873,
        "meta_arg_of_pericenter": 324.1707,
        "meta_mean_anomaly": 35.7213,
        "meta_ephemeris_type": 0,
        "meta_classification_type": "U",
        "meta_norad_cat_id": 34004,
        "meta_element_set_no": 999,
        "meta_rev_at_epoch": 88038,
        "meta_bstar": 0.0022896341,
        "meta_mean_motion_dot": 8.732e-05,
        "meta_mean_motion_ddot": 0,
        "tle_line1": "1 34004U 93036GP  25347.28499001  .00008732  00000+0  22896-2 0  9994",
        "tle_line2": "2 34004  74.0354 312.0873 0033386 324.1707  35.7213 14.49021639880384"
      },
      "geometry": {
        "type": "Point",
        "coordinates": [
          27.878605870972333,
          73.61035350268622
        ]
      }
    },
    {
      "type": "Feature",
      "properties": {
        "norad_id": 34005,
        "name": "COSMOS 2251 DEB",
        "group": "cosmos-2251-debris",
        "lat": -31.78209063990571,
        "lon": -158.4933365790788,
        "alt_km": 748.3236369022316,
        "timestamp": "2025-12-13T18:50:04.823665+00:00",
        "meta_object_name": "COSMOS 2251 DEB",
        "meta_object_id": "1993-036GQ",
        "meta_epoch": "2025-12-13T02:52:11.710272",
        "meta_mean_motion": 14.40304714,
        "meta_eccentricity": 0.00208597,
        "meta_inclination": 74.0443,
        "meta_ra_of_asc_node": 212.9456,
        "meta_arg_of_pericenter": 331.048,
        "meta_mean_anomaly": 148.1241,
        "meta_ephemeris_type": 0,
        "meta_classification_type": "U",
        "meta_norad_cat_id": 34005,
        "meta_element_set_no": 999,
        "meta_rev_at_epoch": 88384,
        "meta_bstar": 0.00015504742,
        "meta_mean_motion_dot": 4.66e-06,
        "meta_mean_motion_ddot": 0,
        "tle_line1": "1 34005U 93036GQ  25347.11957998  .00000466  00000+0  15505-3 0  9997",
        "tle_line2": "2 34005  74.0443 212.9456 0020859 331.0480 148.1241 14.40304714883848"
      },
      "geometry": {
        "type": "Point",
        "coordinates": [
          -158.4933365790788,
          -31.78209063990571
        ]
      }
    },
    {
      "type": "Feature",
      "properties": {
        "norad_id": 34006,
        "name": "COSMOS 2251 DEB",
        "group": "cosmos-2251-debris",
        "lat": 69.47161085583122,
        "lon": -169.03483124832954,
        "alt_km": 567.7643266420273,
        "timestamp": "2025-12-13T18:50:04.823676+00:00",
        "meta_object_name": "COSMOS 2251 DEB",
        "meta_object_id": "1993-036GR",
        "meta_epoch": "2025-12-12T12:13:34.301856",
        "meta_mean_motion": 14.94733117,
        "meta_eccentricity": 0.00115058,
        "meta_inclination": 74.0534,
        "meta_ra_of_asc_node": 143.7492,
        "meta_arg_of_pericenter": 89.3897,
        "meta_mean_anomaly": 327.4283,
        "meta_ephemeris_type": 0,
        "meta_classification_type": "U",
        "meta_norad_cat_id": 34006,
        "meta_element_set_no": 999,
        "meta_rev_at_epoch": 88665,
        "meta_bstar": 0.0051825966,
        "meta_mean_motion_dot": 0.00056797,
        "meta_mean_motion_ddot": 0,
        "tle_line1": "1 34006U 93036GR  25346.50942479  .00056797  00000+0  51826-2 0  9991",
        "tle_line2": "2 34006  74.0534 143.7492 0011505  89.3897 327.4283 14.94733117886656"
      },
      "geometry": {
        "type": "Point",
        "coordinates": [
          -169.03483124832954,
          69.47161085583122
        ]
      }
    },
    {
      "type": "Feature",
      "properties": {
        "norad_id": 34007,
        "name": "COSMOS 2251 DEB",
        "group": "cosmos-2251-debris",
        "lat": -72.17329767770653,
        "lon": -132.1003691799801,
        "alt_km": 709.396439067038,
        "timestamp": "2025-12-13T18:50:04.823686+00:00",
        "meta_object_name": "COSMOS 2251 DEB",
        "meta_object_id": "1993-036GS",
        "meta_epoch": "2025-12-13T06:10:18.516864",
        "meta_mean_motion": 14.64794448,
        "meta_eccentricity": 0.00443031,
        "meta_inclination": 74.0196,
        "meta_ra_of_asc_node": 345.9005,
        "meta_arg_of_pericenter": 120.6882,
        "meta_mean_anomaly": 239.8664,
        "meta_ephemeris_type": 0,
        "meta_classification_type": "U",
        "meta_norad_cat_id": 34007,
        "meta_element_set_no": 999,
        "meta_rev_at_epoch": 89087,
        "meta_bstar": 0.0011391923,
        "meta_mean_motion_dot": 6.139e-05,
        "meta_mean_motion_ddot": 0,
        "tle_line1": "1 34007U 93036GS  25347.25715876  .00006139  00000+0  11392-2 0  9993",
        "tle_line2": "2 34007  74.0196 345.9005 0044303 120.6882 239.8664 14.64794448890871"
      },
      "geometry": {
        "type": "Point",
        "coordinates": [
          -132.1003691799801,
          -72.17329767770653
        ]
      }
    },
    {
      "type": "Feature",
      "properties": {
        "norad_id": 34008,
        "name": "COSMOS 2251 DEB",
        "group": "cosmos-2251-debris",
        "lat": -25.568682420058376,
        "lon": 156.4813310086174,
        "alt_km": 794.3797931578829,
        "timestamp": "2025-12-13T18:50:04.823696+00:00",
        "meta_object_name": "COSMOS 2251 DEB",
        "meta_object_id": "1993-036GT",
        "meta_epoch": "2025-12-13T06:13:06.667680",
        "meta_mean_motion": 14.33147044,
        "meta_eccentricity": 0.00243352,
        "meta_inclination": 74.0343,
        "meta_ra_of_asc_node": 329.569,
        "meta_arg_of_pericenter": 324.6875,
        "meta_mean_anomaly": 51.0952,
        "meta_ephemeris_type": 0,
        "meta_classification_type": "U",
        "meta_norad_cat_id": 34008,
        "meta_element_set_no": 999,
        "meta_rev_at_epoch": 87972,
        "meta_bstar": 0.0002031531,
        "meta_mean_motion_dot": 5.33e-06,
        "meta_mean_motion_ddot": 0,
        "tle_line1": "1 34008U 93036GT  25347.25910495  .00000533  00000+0  20315-3 0  9996",
        "tle_line2": "2 34008  74.0343 329.5690 0024335 324.6875  51.0952 14.33147044879720"
      },
      "geometry": {
        "type": "Point",
        "coordinates": [
          156.4813310086174,
          -25.568682420058376
        ]
      }
    },
    {
      "type": "Feature",
      "properties": {
        "norad_id": 34009,
        "name": "COSMOS 2251 DEB",
        "group": "cosmos-2251-debris",
        "lat": -58.949288983841456,
        "lon": -176.58678791004826,
        "alt_km": 805.7363939052066,
        "timestamp": "2025-12-13T18:50:04.823707+00:00",
        "meta_object_name": "COSMOS 2251 DEB",
        "meta_object_id": "1993-036GU",
        "meta_epoch": "2025-12-13T08:12:55.276416",
        "meta_mean_motion": 14.33223022,
        "meta_eccentricity": 0.00265257,
        "meta_inclination": 74.0371,
        "meta_ra_of_asc_node": 335.8353,
        "meta_arg_of_pericenter": 45.2671,
        "meta_mean_anomaly": 75.7244,
        "meta_ephemeris_type": 0,
        "meta_classification_type": "U",
        "meta_norad_cat_id": 34009,
        "meta_element_set_no": 999,
        "meta_rev_at_epoch": 87954,
        "meta_bstar": 0.00022490234,
        "meta_mean_motion_dot": 5.95e-06,
        "meta_mean_motion_ddot": 0,
        "tle_line1": "1 34009U 93036GU  25347.34230644  .00000595  00000+0  22490-3 0  9992",
        "tle_line2": "2 34009  74.0371 335.8353 0026525  45.2671  75.7244 14.33223022879549"
      },
      "geometry": {
        "type": "Point",
        "coordinates": [
          -176.58678791004826,
          -58.949288983841456
        ]
      }
    }
  ]
}